OBJECT_NAME,OBJECT_ID,EPOCH,MEAN_MOTION,ECCENTRICITY,INCLINATION,RA_OF_ASC_NODE,ARG_OF_PERICENTER,MEAN_ANOMALY,EPHEMERIS_TYPE,CLASSIFICATION_TYPE,NORAD_CAT_ID,ELEMENT_SET_NO,REV_AT_EPOCH,BSTAR,MEAN_MOTION_DOT,MEAN_MOTION_DDOT
STARLINK-32183,2024-144J,2026-07-11T18:10:56.443872,15.34387989,.00003617,53.1619,0.2048,80.3843,279.7201,0,U,60433,999,10831,.16329282E-4,.176E-5,0
STARLINK-32233,2024-144K,2026-07-11T17:55:06.224448,15.34397683,.00007778,53.1627,358.7224,84.7085,275.4006,0,U,60434,999,10833,.63348127E-4,.1765E-4,0
STARLINK-32222,2024-144L,2026-07-11T17:36:55.763136,15.34388387,.00011179,53.1625,358.6387,94.2356,265.8775,0,U,60435,999,10833,.39547538E-4,.96E-5,0
STARLINK-32229,2024-144M,2026-07-11T17:27:50.714784,15.34387887,.00006242,53.1615,358.5995,77.4580,282.6493,0,U,60436,999,10833,.1771076E-5,-.316E-5,0
STARLINK-32241,2024-144N,2026-07-11T18:04:12.010656,15.34395857,.00012542,53.1627,358.7578,91.2339,268.8807,0,U,60437,999,10833,.32342464E-4,.716E-5,0
STARLINK-32240,2024-144P,2026-07-11T17:24:48.936096,15.34387980,.0000837,53.1612,358.5906,64.4715,295.6374,0,U,60438,999,10837,.6243541E-5,-.165E-5,0
STARLINK-32231,2024-144Q,2026-07-11T17:52:04.558944,15.34398139,.00008832,53.1619,358.7032,100.1450,259.9652,0,U,60439,999,10743,.61812425E-4,.1713E-4,0
STARLINK-32195,2024-144R,2026-07-11T18:52:32.991744,15.34384564,.00013822,53.1620,358.2584,63.2970,296.8174,0,U,60440,999,10834,.11353783E-4,.7E-7,0
STARLINK-32252,2024-144T,2026-07-11T17:21:47.078784,15.34387940,.00011583,53.1616,358.5767,53.4953,306.6157,0,U,60442,999,10837,.28324791E-4,.581E-5,0
STARLINK-32237,2024-144U,2026-07-11T18:01:09.943392,15.34393685,.0000881,53.1612,358.7428,89.4851,270.6253,0,U,60443,999,10833,.39694874E-4,.965E-5,0
STARLINK-32228,2024-144W,2026-07-11T18:28:18.732000,15.34389784,.00007109,53.1597,358.1479,109.7853,250.3226,0,U,60445,999,10838,.12001078E-4,.3E-6,0
STARLINK-32247,2024-144X,2026-07-11T18:07:47.158752,15.34405159,.00011132,53.1623,350.1060,83.2631,276.8498,0,U,60446,999,10849,-.1689048E-3,-.6079E-4,0
STARLINK-32101,2024-144Y,2026-07-11T18:34:21.546336,15.34414895,.00009855,53.1583,358.1767,41.6528,318.4550,0,U,60447,999,10834,-.82962914E-4,-.3179E-4,0
LEGION 3,2024-146A,2026-07-11T15:29:39.703488,15.15641977,.0008526,45.0012,259.4148,315.1930,44.8259,0,U,60452,999,10573,.12016822E-3,.2061E-4,0
EOS-08,2024-147A,2026-07-11T15:27:36.390816,15.50674666,.00033975,37.3807,262.1148,128.6646,231.4424,0,U,60454,999,10687,.34280503E-3,.20166E-3,0
TRANSPORTER-11 OBJECT A,2024-149A,2026-07-11T18:14:25.836000,15.33303880,.00047679,97.3731,272.6183,125.1154,235.0536,0,U,60468,999,10582,.16510849E-3,.5235E-4,0
WARATAH SEED-1,2024-149B,2026-07-11T17:34:39.377280,15.36561434,.00030937,97.3689,273.3385,127.2537,232.8989,0,U,60469,999,10588,.22648795E-3,.8002E-4,0
PHISAT 2,2024-149C,2026-07-11T17:59:04.423200,15.31390094,.00030464,97.3757,271.8326,128.5103,231.6411,0,U,60470,999,10575,.15212698E-3,.4534E-4,0
