STARLINK-32183          
1 60433U 24144J   26192.75759773  .00000176  00000+0  16329-4 0  9999
2 60433  53.1619   0.2048 0000361  80.3843 279.7201 15.34387989108311
STARLINK-32233          
1 60434U 24144K   26192.74659982  .00001765  00000+0  63348-4 0  9998
2 60434  53.1627 358.7224 0000777  84.7085 275.4006 15.34397683108335
STARLINK-32222          
1 60435U 24144L   26192.73397874  .00000960  00000+0  39548-4 0  9998
2 60435  53.1625 358.6387 0001117  94.2356 265.8775 15.34388387108336
STARLINK-32229          
1 60436U 24144M   26192.72767031 -.00000316  00000+0  17711-5 0  9999
2 60436  53.1615 358.5995 0000624  77.4580 282.6493 15.34387887108332
STARLINK-32241          
1 60437U 24144N   26192.75291679  .00000716  00000+0  32342-4 0  9992
2 60437  53.1627 358.7578 0001254  91.2339 268.8807 15.34395857108332
STARLINK-32240          
1 60438U 24144P   26192.72556639 -.00000165  00000+0  62435-5 0  9996
2 60438  53.1612 358.5906 0000837  64.4715 295.6374 15.34387980108375
STARLINK-32231          
1 60439U 24144Q   26192.74449721  .00001713  00000+0  61812-4 0  9998
2 60439  53.1619 358.7032 0000883 100.1450 259.9652 15.34398139107436
STARLINK-32195          
1 60440U 24144R   26192.78649296  .00000007  00000+0  11354-4 0  9994
2 60440  53.1620 358.2584 0001382  63.2970 296.8174 15.34384564108345
STARLINK-32252          
1 60442U 24144T   26192.72346156  .00000581  00000+0  28325-4 0  9992
2 60442  53.1616 358.5767 0001158  53.4953 306.6157 15.34387940108376
STARLINK-32237          
1 60443U 24144U   26192.75080953  .00000965  00000+0  39695-4 0  9994
2 60443  53.1612 358.7428 0000881  89.4851 270.6253 15.34393685108333
STARLINK-32228          
1 60445U 24144W   26192.76966125  .00000030  00000+0  12001-4 0  9996
2 60445  53.1597 358.1479 0000710 109.7853 250.3226 15.34389784108381
STARLINK-32247          
1 60446U 24144X   26192.75540693 -.00006079  00000+0 -16890-3 0  9994
2 60446  53.1623 350.1060 0001113  83.2631 276.8498 15.34405159108499
STARLINK-32101          
1 60447U 24144Y   26192.77386049 -.00003179  00000+0 -82963-4 0  9993
2 60447  53.1583 358.1767 0000985  41.6528 318.4550 15.34414895108349
LEGION 3                
1 60452U 24146A   26192.64559842  .00002061  00000+0  12017-3 0  9999
2 60452  45.0012 259.4148 0008526 315.1930  44.8259 15.15641977105731
EOS-08                  
1 60454U 24147A   26192.64417119  .00020166  00000+0  34281-3 0  9995
2 60454  37.3807 262.1148 0003397 128.6646 231.4424 15.50674666106876
TRANSPORTER-11 OBJECT A 
1 60468U 24149A   26192.76002125  .00005235  00000+0  16511-3 0  9998
2 60468  97.3731 272.6183 0004767 125.1154 235.0536 15.33303880105822
WARATAH SEED-1          
1 60469U 24149B   26192.73240020  .00008002  00000+0  22649-3 0  9998
2 60469  97.3689 273.3385 0003093 127.2537 232.8989 15.36561434105883
PHISAT 2                
1 60470U 24149C   26192.74935675  .00004534  00000+0  15213-3 0  9993
2 60470  97.3757 271.8326 0003046 128.5103 231.6411 15.31390094105750
